{
  "type": "FeatureCollection",
  "features": [
    {
      "type": "Feature",
      "properties": {
        "norad_id": 34765,
        "name": "IRIDIUM 33 DEB",
        "group": "iridium-33-debris",
        "lat": -12.850001845831379,
        "lon": 28.63776425557885,
        "alt_km": 772.3866474063689,
        "timestamp": "2025-12-20T09:36:02.033890+00:00",
        "meta_object_name": "IRIDIUM 33 DEB",
        "meta_object_id": "1997-051LJ",
        "meta_epoch": "2025-12-18T13:21:25.941600",
        "meta_mean_motion": 14.40479279,
        "meta_eccentricity": 0.00160914,
        "meta_inclination": 86.3386,
        "meta_ra_of_asc_node": 30.2656,
        "meta_arg_of_pericenter": 191.4295,
        "meta_mean_anomaly": 322.071,
        "meta_ephemeris_type": 0,
        "meta_classification_type": "U",
        "meta_norad_cat_id": 34765,
        "meta_element_set_no": 999,
        "meta_rev_at_epoch": 87697,
        "meta_bstar": 0.00029987235,
        "meta_mean_motion_dot": 9.74e-06,
        "meta_mean_motion_ddot": 0,
        "tle_line1": "1 34765U 97051LJ  25352.55655025  .00000974  00000+0  29987-3 0  9994",
        "tle_line2": "2 34765  86.3386  30.2656 0016091 191.4295 322.0710 14.40479279876970"
      },
      "geometry": {
        "type": "Point",
        "coordinates": [
          28.63776425557885,
          -12.850001845831379
        ]
      }
    },
    {
      "type": "Feature",
      "properties": {
        "norad_id": 34833,
        "name": "IRIDIUM 33 DEB",
        "group": "iridium-33-debris",
        "lat": 60.77377013102149,
        "lon": 54.166542304340126,
        "alt_km": 697.0984930971717,
        "timestamp": "2025-12-20T09:36:02.033901+00:00",
        "meta_object_name": "IRIDIUM 33 DEB",
        "meta_object_id": "1997-051MH",
        "meta_epoch": "2025-12-19T09:05:01.669920",
        "meta_mean_motion": 14.52414234,
        "meta_eccentricity": 0.0021541,
        "meta_inclination": 86.3931,
        "meta_ra_of_asc_node": 48.1333,
        "meta_arg_of_pericenter": 78.2401,
        "meta_mean_anomaly": 44.9997,
        "meta_ephemeris_type": 0,
        "meta_classification_type": "U",
        "meta_norad_cat_id": 34833,
        "meta_element_set_no": 999,
        "meta_rev_at_epoch": 87811,
        "meta_bstar": 0.00049084,
        "meta_mean_motion_dot": 2.026e-05,
        "meta_mean_motion_ddot": 0,
        "tle_line1": "1 34833U 97051MH  25353.37849155  .00002026  00000+0  49084-3 0  9990",
        "tle_line2": "2 34833  86.3931  48.1333 0021541  78.2401  44.9997 14.52414234878117"
      },
      "geometry": {
        "type": "Point",
        "coordinates": [
          54.166542304340126,
          60.77377013102149
        ]
      }
    },
    {
      "type": "Feature",
      "properties": {
        "norad_id": 34870,
        "name": "IRIDIUM 33 DEB",
        "group": "iridium-33-debris",
        "lat": -23.144982414392206,
        "lon": -51.005470730564824,
        "alt_km": 657.6440302425963,
        "timestamp": "2025-12-20T09:36:02.033911+00:00",
        "meta_object_name": "IRIDIUM 33 DEB",
        "meta_object_id": "1997-051MQ",
        "meta_epoch": "2025-12-17T15:48:12.189024",
        "meta_mean_motion": 14.76525212,
        "meta_eccentricity": 0.00169592,
        "meta_inclination": 86.3102,
        "meta_ra_of_asc_node": 311.8309,
        "meta_arg_of_pericenter": 164.6796,
        "meta_mean_anomaly": 8.9227,
        "meta_ephemeris_type": 0,
        "meta_classification_type": "U",
        "meta_norad_cat_id": 34870,
        "meta_element_set_no": 999,
        "meta_rev_at_epoch": 88983,
        "meta_bstar": 0.0011120343,
        "meta_mean_motion_dot": 7.793e-05,
        "meta_mean_motion_ddot": 0,
        "tle_line1": "1 34870U 97051MQ  25351.65847441  .00007793  00000+0  11120-2 0  9991",
        "tle_line2": "2 34870  86.3102 311.8309 0016959 164.6796   8.9227 14.76525212889837"
      },
      "geometry": {
        "type": "Point",
        "coordinates": [
          -51.005470730564824,
          -23.144982414392206
        ]
      }
    },
    {
      "type": "Feature",
      "properties": {
        "norad_id": 34896,
        "name": "IRIDIUM 33 DEB",
        "group": "iridium-33-debris",
        "lat": -77.20872459463737,
        "lon": 159.67747554975912,
        "alt_km": 674.3111151092016,
        "timestamp": "2025-12-20T09:36:02.033921+00:00",
        "meta_object_name": "IRIDIUM 33 DEB",
        "meta_object_id": "1997-051MY",
        "meta_epoch": "2025-12-17T17:20:43.717344",
        "meta_mean_motion": 14.6632638,
        "meta_eccentricity": 0.00248916,
        "meta_inclination": 86.3286,
        "meta_ra_of_asc_node": 324.4498,
        "meta_arg_of_pericenter": 196.3048,
        "meta_mean_anomaly": 337.3904,
        "meta_ephemeris_type": 0,
        "meta_classification_type": "U",
        "meta_norad_cat_id": 34896,
        "meta_element_set_no": 999,
        "meta_rev_at_epoch": 87692,
        "meta_bstar": 0.00069874419,
        "meta_mean_motion_dot": 3.895e-05,
        "meta_mean_motion_ddot": 0,
        "tle_line1": "1 34896U 97051MY  25351.72272821  .00003895  00000+0  69874-3 0  9990",
        "tle_line2": "2 34896  86.3286 324.4498 0024891 196.3048 337.3904 14.66326380876924"
      },
      "geometry": {
        "type": "Point",
        "coordinates": [
          159.67747554975912,
          -77.20872459463737
        ]
      }
    },
    {
      "type": "Feature",
      "properties": {
        "norad_id": 34926,
        "name": "IRIDIUM 33 DEB",
        "group": "iridium-33-debris",
        "lat": 21.883989901364803,
        "lon": 6.278187328020309,
        "alt_km": 732.7242598281509,
        "timestamp": "2025-12-20T09:36:02.033952+00:00",
        "meta_object_name": "IRIDIUM 33 DEB",
        "meta_object_id": "1997-051NF",
        "meta_epoch": "2025-12-20T01:29:58.202880",
        "meta_mean_motion": 14.54723166,
        "meta_eccentricity": 0.0074556,
        "meta_inclination": 86.1315,
        "meta_ra_of_asc_node": 4.8773,
        "meta_arg_of_pericenter": 267.4346,
        "meta_mean_anomaly": 147.2463,
        "meta_ephemeris_type": 0,
        "meta_classification_type": "U",
        "meta_norad_cat_id": 34926,
        "meta_element_set_no": 999,
        "meta_rev_at_epoch": 86563,
        "meta_bstar": 0.0033634,
        "meta_mean_motion_dot": 0.00014979,
        "meta_mean_motion_ddot": 0,
        "tle_line1": "1 34926U 97051NF  25354.06247920  .00014979  00000+0  33634-2 0  9995",
        "tle_line2": "2 34926  86.1315   4.8773 0074556 267.4346 147.2463 14.54723166865632"
      },
      "geometry": {
        "type": "Point",
        "coordinates": [
          6.278187328020309,
          21.883989901364803
        ]
      }
    },
    {
      "type": "Feature",
      "properties": {
        "norad_id": 34985,
        "name": "IRIDIUM 33 DEB",
        "group": "iridium-33-debris",
        "lat": 19.83473166761356,
        "lon": -127.69980424283531,
        "alt_km": 739.3510582145818,
        "timestamp": "2025-12-20T09:36:02.033963+00:00",
        "meta_object_name": "IRIDIUM 33 DEB",
        "meta_object_id": "1997-051NR",
        "meta_epoch": "2025-12-18T03:42:15.992064",
        "meta_mean_motion": 14.42032375,
        "meta_eccentricity": 0.00213063,
        "meta_inclination": 86.3697,
        "meta_ra_of_asc_node": 54.5701,
        "meta_arg_of_pericenter": 201.5738,
        "meta_mean_anomaly": 187.9746,
        "meta_ephemeris_type": 0,
        "meta_classification_type": "U",
        "meta_norad_cat_id": 34985,
        "meta_element_set_no": 999,
        "meta_rev_at_epoch": 87253,
        "meta_bstar": 0.00049263148,
        "meta_mean_motion_dot": 1.64e-05,
        "meta_mean_motion_ddot": 0,
        "tle_line1": "1 34985U 97051NR  25352.15435176  .00001640  00000+0  49263-3 0  9997",
        "tle_line2": "2 34985  86.3697  54.5701 0021306 201.5738 187.9746 14.42032375872538"
      },
      "geometry": {
        "type": "Point",
        "coordinates": [
          -127.69980424283531,
          19.83473166761356
        ]
      }
    },
    {
      "type": "Feature",
      "properties": {
        "norad_id": 35051,
        "name": "IRIDIUM 33 DEB",
        "group": "iridium-33-debris",
        "lat": -66.57679508020763,
        "lon": -165.94223756489805,
        "alt_km": 748.186186111443,
        "timestamp": "2025-12-20T09:36:02.033974+00:00",
        "meta_object_name": "IRIDIUM 33 DEB",
        "meta_object_id": "1997-051NX",
        "meta_epoch": "2025-12-19T07:34:48.667584",
        "meta_mean_motion": 14.47625509,
        "meta_eccentricity": 0.0010483,
        "meta_inclination": 86.3238,
        "meta_ra_of_asc_node": 5.9957,
        "meta_arg_of_pericenter": 72.9006,
        "meta_mean_anomaly": 287.3345,
        "meta_ephemeris_type": 0,
        "meta_classification_type": "U",
        "meta_norad_cat_id": 35051,
        "meta_element_set_no": 999,
        "meta_rev_at_epoch": 87091,
        "meta_bstar": 0.00045048,
        "meta_mean_motion_dot": 1.68e-05,
        "meta_mean_motion_ddot": 0,
        "tle_line1": "1 35051U 97051NX  25353.31584106  .00001680  00000+0  45048-3 0  9990",
        "tle_line2": "2 35051  86.3238   5.9957 0010483  72.9006 287.3345 14.47625509870911"
      },
      "geometry": {
        "type": "Point",
        "coordinates": [
          -165.94223756489805,
          -66.57679508020763
        ]
      }
    }
  ]
}